[
  {
    "OBJECT_NAME": "STARLINK-1993",
    "OBJECT_ID": "2021-009AS",
    "EPOCH": "2024-05-21T03:57:51.453504",
    "MEAN_MOTION": 15.06408991,
    "ECCENTRICITY": 0.0001301,
    "INCLINATION": 53.0545,
    "RA_OF_ASC_NODE": 93.3546,
    "ARG_OF_PERICENTER": 98.0972,
    "MEAN_ANOMALY": 262.0165,
    "EPHEMERIS_TYPE": 0,
    "CLASSIFICATION_TYPE": "U",
    "NORAD_CAT_ID": 47588,
    "ELEMENT_SET_NO": 999,
    "REV_AT_EPOCH": 18230,
    "BSTAR": 0.00081526,
    "MEAN_MOTION_DOT": 0.00011885,
    "MEAN_MOTION_DDOT": 0
  },
  {
    "OBJECT_NAME": "STARLINK-1994",
    "OBJECT_ID": "2021-009AT",
    "EPOCH": "2024-05-21T02:48:50.819040",
    "MEAN_MOTION": 15.06392968,
    "ECCENTRICITY": 0.0001445,
    "INCLINATION": 53.0538,
    "RA_OF_ASC_NODE": 93.5706,
    "ARG_OF_PERICENTER": 77.2909,
    "MEAN_ANOMALY": 282.8241,
    "EPHEMERIS_TYPE": 0,
    "CLASSIFICATION_TYPE": "U",
    "NORAD_CAT_ID": 47589,
    "ELEMENT_SET_NO": 999,
    "REV_AT_EPOCH": 18229,
    "BSTAR": 0.00063423,
    "MEAN_MOTION_DOT": 9.176e-5,
    "MEAN_MOTION_DDOT": 0
  },
  {
    "OBJECT_NAME": "STARLINK-1995",
    "OBJECT_ID": "2021-009AU",
    "EPOCH": "2024-05-20T07:29:06.295488",
    "MEAN_MOTION": 15.06389271,
    "ECCENTRICITY": 0.0001189,
    "INCLINATION": 53.0523,
    "RA_OF_ASC_NODE": 117.1845,
    "ARG_OF_PERICENTER": 104.1565,
    "MEAN_ANOMALY": 255.9556,
    "EPHEMERIS_TYPE": 0,
    "CLASSIFICATION_TYPE": "U",
    "NORAD_CAT_ID": 47590,
    "ELEMENT_SET_NO": 999,
    "REV_AT_EPOCH": 18128,
    "BSTAR": -5.9137e-5,
    "MEAN_MOTION_DOT": -1.162e-5,
    "MEAN_MOTION_DDOT": 0
  },
  {
    "OBJECT_NAME": "STARLINK-1996",
    "OBJECT_ID": "2021-009AV",
    "EPOCH": "2024-05-21T04:19:05.151936",
    "MEAN_MOTION": 15.06410416,
    "ECCENTRICITY": 0.0001343,
    "INCLINATION": 53.0536,
    "RA_OF_ASC_NODE": 93.2938,
    "ARG_OF_PERICENTER": 100.2004,
    "MEAN_ANOMALY": 259.9137,
    "EPHEMERIS_TYPE": 0,
    "CLASSIFICATION_TYPE": "U",
    "NORAD_CAT_ID": 47591,
    "ELEMENT_SET_NO": 999,
    "REV_AT_EPOCH": 18229,
    "BSTAR": 0.00055102,
    "MEAN_MOTION_DOT": 7.938e-5,
    "MEAN_MOTION_DDOT": 0
  },
  {
    "OBJECT_NAME": "STARLINK-1997",
    "OBJECT_ID": "2021-009AW",
    "EPOCH": "2024-05-21T03:28:39.173376",
    "MEAN_MOTION": 15.06407636,
    "ECCENTRICITY": 0.0001282,
    "INCLINATION": 53.0523,
    "RA_OF_ASC_NODE": 113.4457,
    "ARG_OF_PERICENTER": 86.8318,
    "MEAN_ANOMALY": 273.2818,
    "EPHEMERIS_TYPE": 0,
    "CLASSIFICATION_TYPE": "U",
    "NORAD_CAT_ID": 47592,
    "ELEMENT_SET_NO": 999,
    "REV_AT_EPOCH": 18200,
    "BSTAR": 0.00015786,
    "MEAN_MOTION_DOT": 2.071e-5,
    "MEAN_MOTION_DDOT": 0
  },
  {
    "OBJECT_NAME": "STARLINK-1998",
    "OBJECT_ID": "2021-009AX",
    "EPOCH": "2024-05-21T04:21:44.744832",
    "MEAN_MOTION": 15.06389012,
    "ECCENTRICITY": 0.0001283,
    "INCLINATION": 53.0524,
    "RA_OF_ASC_NODE": 113.2813,
    "ARG_OF_PERICENTER": 99.4355,
    "MEAN_ANOMALY": 260.6779,
    "EPHEMERIS_TYPE": 0,
    "CLASSIFICATION_TYPE": "U",
    "NORAD_CAT_ID": 47593,
    "ELEMENT_SET_NO": 999,
    "REV_AT_EPOCH": 18202,
    "BSTAR": 0.00038162,
    "MEAN_MOTION_DOT": 5.406e-5,
    "MEAN_MOTION_DDOT": 0
  },
  {
    "OBJECT_NAME": "STARLINK-1999",
    "OBJECT_ID": "2021-009AY",
    "EPOCH": "2024-05-21T05:09:32.059296",
    "MEAN_MOTION": 15.06410855,
    "ECCENTRICITY": 0.0001407,
    "INCLINATION": 53.0526,
    "RA_OF_ASC_NODE": 113.1376,
    "ARG_OF_PERICENTER": 108.68,
    "MEAN_ANOMALY": 251.4342,
    "EPHEMERIS_TYPE": 0,
    "CLASSIFICATION_TYPE": "U",
    "NORAD_CAT_ID": 47594,
    "ELEMENT_SET_NO": 999,
    "REV_AT_EPOCH": 18201,
    "BSTAR": 0.00078021,
    "MEAN_MOTION_DOT": 0.00011362,
    "MEAN_MOTION_DDOT": 0
  },
  {
    "OBJECT_NAME": "STARLINK-2000",
    "OBJECT_ID": "2021-009AZ",
    "EPOCH": "2024-05-21T04:48:16.089408",
    "MEAN_MOTION": 15.06407856,
    "ECCENTRICITY": 0.0001518,
    "INCLINATION": 53.0526,
    "RA_OF_ASC_NODE": 113.1993,
    "ARG_OF_PERICENTER": 93.7733,
    "MEAN_ANOMALY": 266.3429,
    "EPHEMERIS_TYPE": 0,
    "CLASSIFICATION_TYPE": "U",
    "NORAD_CAT_ID": 47595,
    "ELEMENT_SET_NO": 999,
    "REV_AT_EPOCH": 18201,
    "BSTAR": 0.00028181,
    "MEAN_MOTION_DOT": 3.919e-5,
    "MEAN_MOTION_DDOT": 0
  },
  {
    "OBJECT_NAME": "STARLINK-2001",
    "OBJECT_ID": "2021-009BA",
    "EPOCH": "2024-05-20T08:11:34.220256",
    "MEAN_MOTION": 15.06392041,
    "ECCENTRICITY": 0.0001378,
    "INCLINATION": 53.0524,
    "RA_OF_ASC_NODE": 117.0528,
    "ARG_OF_PERICENTER": 95.7095,
    "MEAN_ANOMALY": 264.4051,
    "EPHEMERIS_TYPE": 0,
    "CLASSIFICATION_TYPE": "U",
    "NORAD_CAT_ID": 47596,
    "ELEMENT_SET_NO": 999,
    "REV_AT_EPOCH": 18128,
    "BSTAR": 3.7797e-5,
    "MEAN_MOTION_DOT": 2.81e-6,
    "MEAN_MOTION_DDOT": 0
  },
  {
    "OBJECT_NAME": "STARLINK-2002",
    "OBJECT_ID": "2021-009BB",
    "EPOCH": "2024-05-21T04:42:57.388320",
    "MEAN_MOTION": 15.06392387,
    "ECCENTRICITY": 0.0001391,
    "INCLINATION": 53.0533,
    "RA_OF_ASC_NODE": 113.217,
    "ARG_OF_PERICENTER": 106.7263,
    "MEAN_ANOMALY": 253.3879,
    "EPHEMERIS_TYPE": 0,
    "CLASSIFICATION_TYPE": "U",
    "NORAD_CAT_ID": 47597,
    "ELEMENT_SET_NO": 999,
    "REV_AT_EPOCH": 18202,
    "BSTAR": -7.5258e-5,
    "MEAN_MOTION_DOT": -1.402e-5,
    "MEAN_MOTION_DDOT": 0
  },
  {
    "OBJECT_NAME": "STARLINK-2003",
    "OBJECT_ID": "2021-009BC",
    "EPOCH": "2024-05-21T04:57:33.924960",
    "MEAN_MOTION": 15.06422895,
    "ECCENTRICITY": 0.0001303,
    "INCLINATION": 53.0547,
    "RA_OF_ASC_NODE": 83.1683,
    "ARG_OF_PERICENTER": 96.2398,
    "MEAN_ANOMALY": 263.8739,
    "EPHEMERIS_TYPE": 0,
    "CLASSIFICATION_TYPE": "U",
    "NORAD_CAT_ID": 47598,
    "ELEMENT_SET_NO": 999,
    "REV_AT_EPOCH": 18245,
    "BSTAR": 0.0011827,
    "MEAN_MOTION_DOT": 0.00017389,
    "MEAN_MOTION_DDOT": 0
  },
  {
    "OBJECT_NAME": "STARLINK-2004",
    "OBJECT_ID": "2021-009BD",
    "EPOCH": "2024-05-20T14:00:01.000224",
    "MEAN_MOTION": 15.59984806,
    "ECCENTRICITY": 0.0001166,
    "INCLINATION": 53.0558,
    "RA_OF_ASC_NODE": 61.6779,
    "ARG_OF_PERICENTER": 169.6981,
    "MEAN_ANOMALY": 205.1936,
    "EPHEMERIS_TYPE": 0,
    "CLASSIFICATION_TYPE": "U",
    "NORAD_CAT_ID": 47599,
    "ELEMENT_SET_NO": 999,
    "REV_AT_EPOCH": 593,
    "BSTAR": 0.0021893,
    "MEAN_MOTION_DOT": 0.00183767,
    "MEAN_MOTION_DDOT": 0
  },
  {
    "OBJECT_NAME": "STARLINK-2005",
    "OBJECT_ID": "2021-009BE",
    "EPOCH": "2024-05-21T02:09:03.552480",
    "MEAN_MOTION": 15.06416103,
    "ECCENTRICITY": 0.0001523,
    "INCLINATION": 53.0547,
    "RA_OF_ASC_NODE": 73.6615,
    "ARG_OF_PERICENTER": 95.4188,
    "MEAN_ANOMALY": 264.6975,
    "EPHEMERIS_TYPE": 0,
    "CLASSIFICATION_TYPE": "U",
    "NORAD_CAT_ID": 47600,
    "ELEMENT_SET_NO": 999,
    "REV_AT_EPOCH": 18257,
    "BSTAR": 0.0011768,
    "MEAN_MOTION_DOT": 0.00017298,
    "MEAN_MOTION_DDOT": 0
  },
  {
    "OBJECT_NAME": "STARLINK-2006",
    "OBJECT_ID": "2021-009BF",
    "EPOCH": "2024-05-20T04:55:11.064288",
    "MEAN_MOTION": 15.06380441,
    "ECCENTRICITY": 0.0001259,
    "INCLINATION": 53.054,
    "RA_OF_ASC_NODE": 77.6656,
    "ARG_OF_PERICENTER": 104.7527,
    "MEAN_ANOMALY": 255.3601,
    "EPHEMERIS_TYPE": 0,
    "CLASSIFICATION_TYPE": "U",
    "NORAD_CAT_ID": 47601,
    "ELEMENT_SET_NO": 999,
    "REV_AT_EPOCH": 18243,
    "BSTAR": 0.00095774,
    "MEAN_MOTION_DOT": 0.00014005,
    "MEAN_MOTION_DDOT": 0
  }
]