STARLINK-1993           
1 47588U 21009AS  24142.16517886  .00011885  00000+0  81526-3 0  9996
2 47588  53.0545  93.3546 0001301  98.0972 262.0165 15.06408991182305
STARLINK-1994           
1 47589U 21009AT  24142.11725485  .00009176  00000+0  63423-3 0  9994
2 47589  53.0538  93.5706 0001445  77.2909 282.8241 15.06392968182295
STARLINK-1995           
1 47590U 21009AU  24141.31187842 -.00001162  00000+0 -59137-4 0  9993
2 47590  53.0523 117.1845 0001189 104.1565 255.9556 15.06389271181282
STARLINK-1996           
1 47591U 21009AV  24142.17992074  .00007938  00000+0  55102-3 0  9992
2 47591  53.0536  93.2938 0001343 100.2004 259.9137 15.06410416182298
STARLINK-1997           
1 47592U 21009AW  24142.14489784  .00002071  00000+0  15786-3 0  9996
2 47592  53.0523 113.4457 0001282  86.8318 273.2818 15.06407636182009
STARLINK-1998           
1 47593U 21009AX  24142.18176788  .00005406  00000+0  38162-3 0  9996
2 47593  53.0524 113.2813 0001283  99.4355 260.6779 15.06389012182022
STARLINK-1999           
1 47594U 21009AY  24142.21495439  .00011362  00000+0  78021-3 0  9994
2 47594  53.0526 113.1376 0001407 108.6800 251.4342 15.06410855182017
STARLINK-2000           
1 47595U 21009AZ  24142.20018622  .00003919  00000+0  28181-3 0  9990
2 47595  53.0526 113.1993 0001518  93.7733 266.3429 15.06407856182013
STARLINK-2001           
1 47596U 21009BA  24141.34136829  .00000281  00000+0  37797-4 0  9998
2 47596  53.0524 117.0528 0001378  95.7095 264.4051 15.06392041181283
STARLINK-2002           
1 47597U 21009BB  24142.19649755 -.00001402  00000+0 -75258-4 0  9992
2 47597  53.0533 113.2170 0001391 106.7263 253.3879 15.06392387182021
STARLINK-2003           
1 47598U 21009BC  24142.20664265  .00017389  00000+0  11827-2 0  9997
2 47598  53.0547  83.1683 0001303  96.2398 263.8739 15.06422895182452
STARLINK-2004           
1 47599U 21009BD  24141.58334491  .00183767  00000+0  21893-2 0  9991
2 47599  53.0558  61.6779 0001166 169.6981 205.1936 15.59984806  5930
STARLINK-2005           
1 47600U 21009BE  24142.08962445  .00017298  00000+0  11768-2 0  9991
2 47600  53.0547  73.6615 0001523  95.4188 264.6975 15.06416103182576
STARLINK-2006           
1 47601U 21009BF  24141.20498917  .00014005  00000+0  95774-3 0  9996
2 47601  53.0540  77.6656 0001259 104.7527 255.3601 15.06380441182439
